[{"OBJECT_NAME":"STARLINK-34662","OBJECT_ID":"2025-150K","EPOCH":"2026-03-09T13:47:22.549056","MEAN_MOTION":14.98328392,"ECCENTRICITY":0.0003384,"INCLINATION":70.0016,"RA_OF_ASC_NODE":134.5869,"ARG_OF_PERICENTER":269.487,"MEAN_ANOMALY":90.5901,"EPHEMERIS_TYPE":0,"CLASSIFICATION_TYPE":"U","NORAD_CAT_ID":64799,"ELEMENT_SET_NO":999,"REV_AT_EPOCH":3650,"BSTAR":0.00033666,"MEAN_MOTION_DOT":3.926e-5,"MEAN_MOTION_DDOT":0},{"OBJECT_NAME":"PSLV DEB","OBJECT_ID":"2001-049AH","EPOCH":"2026-03-09T23:39:21.767904","MEAN_MOTION":14.98984537,"ECCENTRICITY":0.00513683,"INCLINATION":98.1237,"RA_OF_ASC_NODE":87.2704,"ARG_OF_PERICENTER":48.4953,"MEAN_ANOMALY":9.0267,"EPHEMERIS_TYPE":0,"CLASSIFICATION_TYPE":"U","NORAD_CAT_ID":27089,"ELEMENT_SET_NO":999,"REV_AT_EPOCH":31452,"BSTAR":0.000212521,"MEAN_MOTION_DOT":2.577e-5,"MEAN_MOTION_DDOT":0}]
